OBJECT_NAME,OBJECT_ID,EPOCH,MEAN_MOTION,ECCENTRICITY,INCLINATION,RA_OF_ASC_NODE,ARG_OF_PERICENTER,MEAN_ANOMALY,EPHEMERIS_TYPE,CLASSIFICATION_TYPE,NORAD_CAT_ID,ELEMENT_SET_NO,REV_AT_EPOCH,BSTAR,MEAN_MOTION_DOT,MEAN_MOTION_DDOT
FLOCK 4BE-25,2024-149V,2026-07-16T19:08:27.655584,15.39572550,.0003736,97.3796,281.1633,138.9384,221.2143,0,U,60487,999,10679,.21859E-3,.8517E-4,0
FLOCK 4BE-31,2024-149W,2026-07-16T19:38:00.242304,15.45200361,.000385,97.3795,283.5670,147.4750,212.6736,0,U,60488,999,10695,.26961E-3,.12715E-3,0
FLOCK 4BE-20,2024-149X,2026-07-16T04:33:52.664832,15.38831395,.00051132,97.3691,279.3574,151.0739,209.0790,0,U,60489,999,10667,.22826745E-3,.8686E-4,0
FLOCK 4BE-23,2024-149Y,2026-07-16T04:31:14.949408,15.38379949,.00047491,97.3777,279.7464,153.5549,206.5939,0,U,60490,999,10665,.20426683E-3,.7649E-4,0
FLOCK 4BE-17,2024-149AA,2026-07-16T04:43:28.373088,15.40589478,.00044714,97.3771,280.8101,143.9783,216.1765,0,U,60492,999,10672,.22728142E-3,.9164E-4,0
NUSAT-50 (NANCY ROMAN),2024-149AB,2026-07-16T12:45:40.632192,15.30332973,.0004857,97.3782,278.5911,97.9830,262.1962,0,U,60493,999,10661,.17619E-3,.5094E-4,0
FLOCK 4BE-22,2024-149AC,2026-07-16T16:06:34.996032,15.42015181,.0004802,97.3732,281.5282,149.8093,210.3431,0,U,60494,999,10684,.23186E-3,.9806E-4,0
FLOCK 4BE-34,2024-149AD,2026-07-16T19:38:49.092000,15.41982011,.0004994,97.3781,282.5179,156.8786,203.2686,0,U,60495,999,10689,.22957E-3,.9697E-4,0
TYCHE,2024-149AE,2026-07-16T20:12:50.351616,15.25784959,.000313,97.3748,275.2589,162.9855,197.1489,0,U,60496,999,10642,.90702E-4,.2245E-4,0
FLOCK 4BE-32,2024-149AF,2026-07-16T04:23:33.380736,15.43106297,.0005029,97.3718,281.4419,155.7934,204.3551,0,U,60497,999,10680,.22979E-3,.1008E-3,0
NUSAT-48 (HENRIETTA LEAVITT),2024-149AG,2026-07-16T15:38:14.275104,15.30289562,.0004917,97.3915,279.0049,154.2394,205.9092,0,U,60498,999,10664,.17563E-3,.507E-4,0
NUSAT-49 (KLARA DAN VON NEUMANN),2024-149AJ,2026-07-16T11:56:39.081120,15.29795755,.0002849,97.3782,278.5888,156.1136,204.0238,0,U,60500,999,10661,.8661E-4,.2423E-4,0
FLOCK 4BE-11,2024-149AK,2026-07-16T16:20:42.442656,15.43908786,.0005155,97.3694,282.2039,154.5490,205.6013,0,U,60501,999,10690,.23355E-3,.10529E-3,0
YAM-7,2024-149AN,2026-07-16T15:29:14.945568,15.32194130,.0003776,97.3777,277.7814,163.7122,196.4242,0,U,60504,999,10656,.13398E-3,.4086E-4,0
FLOCK 4BE-24,2024-149AP,2026-07-16T05:03:41.301216,15.44126319,.00051235,97.3715,281.9968,166.9328,193.2054,0,U,60505,999,10684,.25715557E-3,.1169E-3,0
LUR-1,2024-149AQ,2026-07-16T16:03:04.516992,15.30457992,.0004145,97.3732,276.2892,177.6290,182.4971,0,U,60506,999,10648,.13109E-3,.3785E-4,0
TANAGER-1,2024-149AR,2026-07-16T16:54:33.779232,15.43932700,.0002237,97.2316,291.8277,121.9560,238.1906,0,U,60507,999,10759,.57487E-5,.177E-5,0
EAGLEEYE,2024-149AS,2026-07-16T17:36:55.541088,15.77072345,.0004854,97.3709,292.8374,181.4690,178.6562,0,U,60508,999,10758,.61316E-3,.100385E-2,0
FLOCK 4BE-29,2024-149AT,2026-07-16T04:49:20.219808,15.45530128,.0003695,97.3809,283.5336,174.1521,185.9772,0,U,60509,999,10689,.52478252E-3,.25154E-3,0
TRANSPORTER-11 OBJECT AU,2024-149AU,2026-07-16T11:32:16.502784,15.40995434,.0004399,97.3727,281.4503,164.3380,195.8003,0,U,60510,999,10682,.20305E-3,.8288E-4,0
FLOCK 4BE-2,2024-149AV,2026-07-16T05:19:53.942304,15.55985498,.0005352,97.3830,285.4157,170.7885,189.3469,0,U,60511,999,10701,.59257E-3,.41257E-3,0
FLOCK 4BE-13,2024-149AW,2026-07-16T05:20:57.275232,15.42633135,.0005174,97.3719,281.9503,152.9426,207.2092,0,U,60512,999,10684,.18456E-3,.795E-4,0
FLOCK 4BE-27,2024-149AX,2026-07-16T19:06:07.035264,15.34935178,.0004176,97.3822,279.6700,176.4882,183.6392,0,U,60513,999,10668,.16158E-3,.5394E-4,0
FLOCK 4BE-9,2024-149AY,2026-07-16T16:42:28.180800,15.41640499,.0003835,97.3789,282.2704,166.7214,193.4134,0,U,60514,999,10686,.28513E-3,.11929E-3,0
FLOCK 4BE-6,2024-149BA,2026-07-16T16:24:52.764192,15.40344020,.000449,97.3786,281.5593,168.7072,191.4275,0,U,60516,999,10681,.22879E-3,.915E-4,0
FLOCK 4BE-14,2024-149BB,2026-07-16T04:26:32.086176,15.41874549,.00055136,97.3693,281.2204,173.4498,186.6822,0,U,60517,999,10679,.23061047E-3,.9708E-4,0
FLOCK 4BE-1,2024-149BC,2026-07-16T19:38:54.085920,15.43549394,.0005161,97.3777,283.2454,171.1965,188.9375,0,U,60518,999,10694,.25497E-3,.11365E-3,0
FLOCK 4BE-28,2024-149BD,2026-07-16T04:53:22.562304,15.46347044,.00052323,97.3746,283.4415,172.7057,187.4270,0,U,60519,999,10692,.52986944E-3,.26129E-3,0
IPERDRONE.0,2024-149BE,2026-07-16T06:18:16.363296,15.71195616,.0004093,97.3776,292.0068,165.9549,194.1829,0,U,60520,999,10747,.42975E-3,.54341E-3,0
TRANSPORTER-11 OBJECT BF,2024-149BF,2026-07-16T05:39:33.037920,16.12703863,.0011105,97.3802,295.9069,250.2224,109.7864,0,U,60521,999,10771,.94653E-3,.1048025E-1,.70187E-3
