FLOCK 4BE-25            
1 60487U 24149V   26197.79754231  .00008517  00000+0  21859-3 0  9996
2 60487  97.3796 281.1633 0003736 138.9384 221.2143 15.39572550106797
FLOCK 4BE-31            
1 60488U 24149W   26197.81805836  .00012715  00000+0  26961-3 0  9992
2 60488  97.3795 283.5670 0003850 147.4750 212.6736 15.45200361106958
FLOCK 4BE-20            
1 60489U 24149X   26197.19019288  .00008686  00000+0  22827-3 0  9991
2 60489  97.3691 279.3574 0005113 151.0739 209.0790 15.38831395106670
FLOCK 4BE-23            
1 60490U 24149Y   26197.18836747  .00007649  00000+0  20427-3 0  9991
2 60490  97.3777 279.7464 0004749 153.5549 206.5939 15.38379949106656
FLOCK 4BE-17            
1 60492U 24149AA  26197.19685617  .00009164  00000+0  22728-3 0  9992
2 60492  97.3771 280.8101 0004471 143.9783 216.1765 15.40589478106723
NUSAT-50 (NANCY ROMAN)  
1 60493U 24149AB  26197.53172028  .00005094  00000+0  17619-3 0  9999
2 60493  97.3782 278.5911 0004857  97.9830 262.1962 15.30332973106611
FLOCK 4BE-22            
1 60494U 24149AC  26197.67123838  .00009806  00000+0  23186-3 0  9991
2 60494  97.3732 281.5282 0004802 149.8093 210.3431 15.42015181106843
FLOCK 4BE-34            
1 60495U 24149AD  26197.81862375  .00009697  00000+0  22957-3 0  9997
2 60495  97.3781 282.5179 0004994 156.8786 203.2686 15.41982011106895
TYCHE                   
1 60496U 24149AE  26197.84224944  .00002245  00000+0  90702-4 0  9991
2 60496  97.3748 275.2589 0003130 162.9855 197.1489 15.25784959106423
FLOCK 4BE-32            
1 60497U 24149AF  26197.18302524  .00010080  00000+0  22979-3 0  9996
2 60497  97.3718 281.4419 0005029 155.7934 204.3551 15.43106297106805
NUSAT-48 (HENRIETTA LE*)
1 60498U 24149AG  26197.65155411  .00005070  00000+0  17563-3 0  9996
2 60498  97.3915 279.0049 0004917 154.2394 205.9092 15.30289562106648
NUSAT-49 (KLARA DAN VO*)
1 60500U 24149AJ  26197.49767455  .00002423  00000+0  86610-4 0  9998
2 60500  97.3782 278.5888 0002849 156.1136 204.0238 15.29795755106619
FLOCK 4BE-11            
1 60501U 24149AK  26197.68104679  .00010529  00000+0  23355-3 0  9995
2 60501  97.3694 282.2039 0005155 154.5490 205.6013 15.43908786106906
YAM-7                   
1 60504U 24149AN  26197.64531187  .00004086  00000+0  13398-3 0  9999
2 60504  97.3777 277.7814 0003776 163.7122 196.4242 15.32194130106563
FLOCK 4BE-24            
1 60505U 24149AP  26197.21089469  .00011690  00000+0  25716-3 0  9990
2 60505  97.3715 281.9968 0005123 166.9328 193.2054 15.44126319106848
LUR-1                   
1 60506U 24149AQ  26197.66880228  .00003785  00000+0  13109-3 0  9991
2 60506  97.3732 276.2892 0004145 177.6290 182.4971 15.30457992106488
TANAGER-1               
1 60507U 24149AR  26197.70455763  .00000177  00000+0  57487-5 0  9990
2 60507  97.2316 291.8277 0002237 121.9560 238.1906 15.43932700107597
EAGLEEYE                
1 60508U 24149AS  26197.73397617  .00100385  00000+0  61316-3 0  9993
2 60508  97.3709 292.8374 0004854 181.4690 178.6562 15.77072345107588
FLOCK 4BE-29            
1 60509U 24149AT  26197.20092847  .00025154  00000+0  52478-3 0  9992
2 60509  97.3809 283.5336 0003695 174.1521 185.9772 15.45530128106899
TRANSPORTER-11 OBJECT AU
1 60510U 24149AU  26197.48074656  .00008288  00000+0  20305-3 0  9995
2 60510  97.3727 281.4503 0004399 164.3380 195.8003 15.40995434106829
FLOCK 4BE-2             
1 60511U 24149AV  26197.22215211  .00041257  00000+0  59257-3 0  9993
2 60511  97.3830 285.4157 0005352 170.7885 189.3469 15.55985498107016
FLOCK 4BE-13            
1 60512U 24149AW  26197.22288513  .00007950  00000+0  18456-3 0  9997
2 60512  97.3719 281.9503 0005174 152.9426 207.2092 15.42633135106840
FLOCK 4BE-27            
1 60513U 24149AX  26197.79591476  .00005394  00000+0  16158-3 0  9992
2 60513  97.3822 279.6700 0004176 176.4882 183.6392 15.34935178106682
FLOCK 4BE-9             
1 60514U 24149AY  26197.69615950  .00011929  00000+0  28513-3 0  9995
2 60514  97.3789 282.2704 0003835 166.7214 193.4134 15.41640499106861
FLOCK 4BE-6             
1 60516U 24149BA  26197.68394403  .00009150  00000+0  22879-3 0  9995
2 60516  97.3786 281.5593 0004490 168.7072 191.4275 15.40344020106819
FLOCK 4BE-14            
1 60517U 24149BB  26197.18509359  .00009708  00000+0  23061-3 0  9992
2 60517  97.3693 281.2204 0005513 173.4498 186.6822 15.41874549106791
FLOCK 4BE-1             
1 60518U 24149BC  26197.81868155  .00011365  00000+0  25497-3 0  9992
2 60518  97.3777 283.2454 0005161 171.1965 188.9375 15.43549394106941
FLOCK 4BE-28            
1 60519U 24149BD  26197.20373336  .00026129  00000+0  52987-3 0  9996
2 60519  97.3746 283.4415 0005232 172.7057 187.4270 15.46347044106922
IPERDRONE.0             
1 60520U 24149BE  26197.26268939  .00054341  00000+0  42975-3 0  9999
2 60520  97.3776 292.0068 0004093 165.9549 194.1829 15.71195616107471
TRANSPORTER-11 OBJECT BF
1 60521U 24149BF  26197.23579905  .01048025  70187-3  94653-3 0  9995
2 60521  97.3802 295.9069 0011105 250.2224 109.7864 16.12703863107718
